[{"OBJECT_NAME":"LAPAN-A3","OBJECT_ID":"2016-040E","EPOCH":"2026-03-09T23:01:57.724896","MEAN_MOTION":15.3238951,"ECCENTRICITY":0.00109839,"INCLINATION":97.1488,"RA_OF_ASC_NODE":68.4254,"ARG_OF_PERICENTER":22.062,"MEAN_ANOMALY":338.1093,"EPHEMERIS_TYPE":0,"CLASSIFICATION_TYPE":"U","NORAD_CAT_ID":41603,"ELEMENT_SET_NO":999,"REV_AT_EPOCH":53961,"BSTAR":0.00017567445,"MEAN_MOTION_DOT":5.428e-5,"MEAN_MOTION_DDOT":0},{"OBJECT_NAME":"STARLINK-35004","OBJECT_ID":"2025-192AA","EPOCH":"2026-03-09T16:58:55.830432","MEAN_MOTION":15.3019078,"ECCENTRICITY":0.0001299,"INCLINATION":53.1586,"RA_OF_ASC_NODE":232.4959,"ARG_OF_PERICENTER":99.7112,"MEAN_ANOMALY":260.4035,"EPHEMERIS_TYPE":0,"CLASSIFICATION_TYPE":"U","NORAD_CAT_ID":65428,"ELEMENT_SET_NO":999,"REV_AT_EPOCH":2938,"BSTAR":0.00045040813,"MEAN_MOTION_DOT":0.00013,"MEAN_MOTION_DDOT":0}]
